satname,norad_id,inclination_deg,eccentricity,mean_motion_rev_per_day,perigee_km,apogee_km,l1,l2
STARLINK-1143,45179,53.0472,0.0007511,15.62346363,375.80468216755344,385.95807957930174,1 45179U 20012B   26066.66668981  .00196963  00000+0  21367-2 0  9995,2 45179  53.0472 339.7995 0007511  93.6032  16.7922 15.62346363  5945
STARLINK-1202,45183,53.1621,0.0001347,15.30200971,474.2890240566567,476.13531632310605,1 45183U 20012F   26066.33717512  .00000853  00000+0  40908-4 0  9995,2 45183  53.1621  50.1774 0001347  83.5324 276.5830 15.30200971334598
STARLINK-1216,45185,53.162,0.0001376,15.30196019,474.28393311316995,476.1699788738597,1 45185U 20012H   26066.32769374  .00001462  00000+0  61479-4 0  9992,2 45185  53.1620  50.1965 0001376  99.2746 260.8410 15.30196019334536
STARLINK-1225,45187,53.1599,0.0001977,15.30218168,473.8059266031205,476.51572056256464,1 45187U 20012K   26066.32460316  .00006748  00000+0  23961-3 0  9993,2 45187  53.1599  50.6489 0001977  90.2913 269.8315 15.30218168334570
STARLINK-1230,45189,53.161,0.0001362,15.30197713,474.28847051568664,476.1553254795017,1 45189U 20012M   26066.33409109  .00003514  00000+0  13071-3 0  9998,2 45189  53.1610  50.6714 0001362  81.7401 278.3754 15.30197713331809
STARLINK-1234,45190,53.0447,0.000369,15.61581659,380.5928957483293,385.5826796416477,1 45190U 20012N   26066.15637195  .00065729  00000+0  75108-3 0  9993,2 45190  53.0447 337.6798 0003690 299.5573  60.5072 15.61581659335485
STARLINK-1269,45197,53.1614,0.0001289,15.30195168,474.3460979968604,476.1128958797708,1 45197U 20012V   26066.33090922  .00001264  00000+0  54813-4 0  9996,2 45197  53.1614  50.5451 0001289  94.7603 265.3545 15.30195168334556
STARLINK-1154,45198,53.0509,0.0007306,15.45590786,424.6689535154337,434.6164812384659,1 45198U 20012W   26066.29384916  .00111445  00000+0  22542-2 0  9996,2 45198  53.0509  21.4337 0007306  80.8118 279.3714 15.45590786334927
STARLINK-1199,45201,53.158,0.0001472,15.29372806,476.67685760999757,478.6952119114312,1 45201U 20012Z   26066.29881029  .00010401  00000+0  37208-3 0  9994,2 45201  53.1580  34.9294 0001472  86.8819 273.2349 15.29372806334790
STARLINK-1209,45206,53.0475,0.0006042,15.50496358,411.17125912892425,419.3804192037733,1 45206U 20012AE  26066.16159312  .00084690  00000+0  14513-2 0  9992,2 45206  53.0475 345.5914 0006042 270.1454  89.8862 15.50496358334523
STARLINK-1231,45212,53.0521,0.0004262,15.20855943,500.32463675564486,506.1903374164367,1 45212U 20012AL  26066.57734904  .00057800  00000+0  25785-2 0  9996,2 45212  53.0521  25.4918 0004262  73.3066 286.8397 15.20855943334904
STARLINK-1271,45217,53.1614,0.0001412,15.30188561,474.28152628931366,476.2169225590915,1 45217U 20012AR  26066.23279979  .00002104  00000+0  83159-4 0  9998,2 45217  53.1614  35.3733 0001412  89.9432 270.1731 15.30188561334782
STARLINK-1191,45222,53.1609,0.000124,15.30191535,474.3905257092965,476.09016329073256,1 45222U 20012AW  26066.25282433  .00018147  00000+0  62348-3 0  9995,2 45222  53.1609  10.1434 0001240  85.6469 274.4674 15.30191535335142
STARLINK-1212,45223,53.0505,0.0006038,15.51576163,408.02363912926194,416.2235578279842,1 45223U 20012AX  26066.53263617  .00121623  00000+0  19930-2 0  9992,2 45223  53.0505   0.4689 0006038 104.3691 255.7989 15.51576163335303
STARLINK-1215,45225,53.1621,0.0001355,15.30210215,474.25594436760275,476.11319451292184,1 45225U 20012AZ  26066.23904699  .00005921  00000+0  21180-3 0  9996,2 45225  53.1621   9.6865 0001355  90.0168 270.0989 15.30210215335107
STARLINK-1221,45227,53.0653,0.0003057,15.41823706,438.6424752111752,442.8115286619586,1 45227U 20012BB  26066.57808785  .00020777  00000+0  49099-3 0  9999,2 45227  53.0653 279.6207 0003057  46.5381 313.5877 15.41823706336383
STARLINK-1222,45228,53.0571,0.0004015,15.49317785,415.9916506431682,421.44952728710723,1 45228U 20012BC  26066.16970461  .00030050  00000+0  54596-3 0  9999,2 45228  53.0571 354.8925 0004015  77.7636 282.3821 15.49317785335238
STARLINK-1226,45229,53.1613,0.0001321,15.30193917,474.32790201334865,476.13856242870224,1 45229U 20012BD  26066.52985698 -.00001166  00000+0 -27255-4 0  9999,2 45229  53.1613   8.6494 0001321 116.3203 243.7933 15.30193917335086
STARLINK-1227,45230,53.1608,0.0001059,15.31045481,471.96627457736577,473.41728011240866,1 45230U 20012BE  26066.22616147  .00003165  00000+0  11598-3 0  9999,2 45230  53.1608  10.3238 0001059 114.3588 245.7524 15.31045481335159
STARLINK-1246,45235,53.1612,0.0001385,15.30196307,474.27690528502626,476.17528686263995,1 45235U 20012BK  26066.27502418  .00006457  00000+0  22997-3 0  9996,2 45235  53.1612  50.4643 0001385  90.8779 269.2380 15.30196307334609
STARLINK-1270,45237,53.0505,0.0003799,15.46545457,424.25562348412586,429.42604564282647,1 45237U 20012BM  26066.19176141  .00127151  00000+0  24843-2 0  9995,2 45237  53.0505 359.4851 0003799  85.7750 274.3690 15.46545457335284
STARLINK-1279,45360,53.0419,7.77e-05,15.56780357,396.4558572600099,397.50871079674835,1 45360U 20019A   26066.38633005  .00077896  00000+0  10648-2 0  9995,2 45360  53.0419 109.8572 0000777 125.5194 234.5890 15.56780357330310
STARLINK-1301,45361,53.0424,0.0001394,15.64632062,373.35586179500024,375.23844043633017,1 45361U 20019B   26066.55249948  .00073835  00000+0  74764-3 0  9993,2 45361  53.0424 114.5587 0001394 184.1565 175.9438 15.64632062330274
STARLINK-1262,45366,53.1432,0.000148,15.26593301,484.98932600723856,487.0211121040793,1 45366U 20019G   26066.66668981  .00838431  00000+0  29484-1 0  9990,2 45366  53.1432 174.4778 0001480  85.5980  40.8304 15.26593301  5593
STARLINK-1273,45367,53.0531,0.0001643,15.43851768,433.63465752235425,435.87337351005226,1 45367U 20019H   26066.52807326  .00061656  00000+0  13367-2 0  9995,2 45367  53.0531 165.0953 0001643 355.3957   4.7033 15.43851768329564
STARLINK-1276,45368,53.0564,0.0001251,15.06417315,546.292135999548,548.024844931263,1 45368U 20019J   26066.56156002  .00000401  00000+0  45774-4 0  9998,2 45368  53.0564 176.1743 0001251  83.1152 276.9980 15.06417315329412
STARLINK-1277,45369,53.0509,0.0003622,15.48419499,418.88627243262636,423.81182012455156,1 45369U 20019K   26066.56464076  .00097110  00000+0  17868-2 0  9996,2 45369  53.0509 162.7896 0003622   2.6555 357.4471 15.48419499329601
STARLINK-1281,45370,53.1489,0.0001479,15.27736521,481.56575576094383,483.59515598439157,1 45370U 20019L   26066.66668981  .01412030  00000+0  47234-1 0  9992,2 45370  53.1489 174.6604 0001479 101.3629  23.8979 15.27736521  5790
STARLINK-1300,45374,53.1548,0.0001118,15.29308608,477.1113954876846,478.6444004188661,1 45374U 20019Q   26066.66668981  .00046321  00000+0  16099-2 0  9997,2 45374  53.1548 174.6223 0001118  94.0293 292.2463 15.29308608  5740
STARLINK-1302,45375,53.0532,0.0002885,15.5345563,404.6882313527858,408.6030509367256,1 45375U 20019R   26066.66668981  .00044673  00000+0  69582-3 0  9992,2 45375  53.0532 161.5181 0002885 292.3385 177.7674 15.53455630  5902
STARLINK-1304,45376,53.0519,0.0002078,15.47868929,421.5480468343503,424.3745832940922,1 45376U 20019S   26066.64403718  .00096937  00000+0  18184-2 0  9997,2 45376  53.0519 159.2872 0002078 316.9311  43.1533 15.47868929329658
STARLINK-1305,45377,53.0452,0.0002716,15.52550293,407.43952365276346,411.1264501896603,1 45377U 20019T   26066.58613822  .00103988  00000+0  16511-2 0  9997,2 45377  53.0452 142.3968 0002716 101.0340 259.0975 15.52550293329890
STARLINK-1319,45379,53.0441,0.0002034,15.64956068,371.9918546491781,374.73836570759795,1 45379U 20019V   26066.62738296  .00068385  00000+0  68445-3 0  9992,2 45379  53.0441 139.8358 0002034  59.2725 300.8489 15.64956068329931
STARLINK-1266,45383,53.0502,0.0003714,15.45054063,428.69022844795563,433.7482182506592,1 45383U 20019Z   26066.52449436  .00073594  00000+0  15275-2 0  9991,2 45383  53.0502 143.2785 0003714   3.0204 357.0823 15.45054063329863
STARLINK-1267,45384,53.0502,0.0003051,15.49321095,416.63719003821006,420.78462663187565,1 45384U 20019AA  26066.62036784  .00104287  00000+0  18571-2 0  9997,2 45384  53.0502 136.9307 0003051 257.8737 102.1929 15.49321095329960
STARLINK-1272,45386,53.0437,0.0001977,15.55966421,398.00490878619166,400.6847250966093,1 45386U 20019AC  26066.66668981  .00121438  00000+0  16976-2 0  9997,2 45386  53.0437 119.5819 0001977 114.4975 186.2749 15.55966421  5926
STARLINK-1274,45387,53.0282,0.0003876,15.46618773,423.98825112027316,429.26330322513877,1 45387U 20019AD  26066.39617017  .00104768  00000+0  20491-2 0  9996,2 45387  53.0282 113.8918 0003876 230.7384 129.3279 15.46618773330266
STARLINK-1280,45388,53.0426,0.000122,15.6519754,371.84709848573493,373.494295563808,1 45388U 20019AE  26066.41614221  .00074123  00000+0  73386-3 0  9997,2 45388  53.0426 133.6526 0001220  91.4086 268.7068 15.65197540329980
STARLINK-1283,45389,53.0441,0.00038,15.55916156,396.915285241721,402.06628235740936,1 45389U 20019AF  26066.53664674  .00169301  00000+0  23539-2 0  9995,2 45389  53.0441 120.4203 0003800 237.3655 122.6989 15.55916156330199
STARLINK-1284,45390,53.0481,0.0003558,15.51352413,410.3602774102819,415.19269144580085,1 45390U 20019AG  26066.66668981  .00135391  00000+0  22325-2 0  9990,2 45390  53.0481 140.7211 0003558   6.9979 270.2990 15.51352413  5870
STARLINK-1297,45395,53.0474,0.0004252,15.5366092,403.1633297242897,408.93260061867113,1 45395U 20019AM  26066.63119434  .00109908  00000+0  16745-2 0  9990,2 45395  53.0474 140.6370 0004252  10.9419 349.1682 15.53660920329092
STARLINK-1307,45397,53.0547,0.0002035,15.49889311,415.66675901030067,418.4323999481494,1 45397U 20019AP  26066.49043579  .00033914  00000+0  60271-3 0  9999,2 45397  53.0547 141.2960 0002035  35.0835 325.0307 15.49889311329712
STARLINK-1255,45399,53.0404,0.0001714,15.5140356,411.4632904399814,413.7911644171436,1 45399U 20019AR  26066.56342857  .00103903  00000+0  17190-2 0  9997,2 45399  53.0404 112.9720 0001714 308.9097  51.1758 15.51403560330103
